{"type": "FeatureCollection", "features": [ {"type": "Feature", "properties": {"norad_id": 34031, "name": "COSMOS 2251 DEB", "group": "cosmos-2251-debris", "lat": -10.253309225743099, "lon": 106.64972174028321, "alt_km": 705.5920318124245, "timestamp": "2025-12-26T09:30:54.033440+00:00", "meta": {"OBJECT_NAME": "COSMOS 2251 DEB", "OBJECT_ID": "1993-036HS", "EPOCH": "2025-12-26T03:15:28.496736", "MEAN_MOTION": 14.5984019, "ECCENTRICITY": 0.0022838, "INCLINATION": 74.013, "RA_OF_ASC_NODE": 110.1202, "ARG_OF_PERICENTER": 230.0388, "MEAN_ANOMALY": 189.5871, "EPHEMERIS_TYPE": 0, "CLASSIFICATION_TYPE": "U", "NORAD_CAT_ID": 34031, "ELEMENT_SET_NO": 999, "REV_AT_EPOCH": 88761, "BSTAR": 0.0012994, "MEAN_MOTION_DOT": 6.212e-05, "MEAN_MOTION_DDOT": 0}, "tle": {"line1": "1 34031U 93036HS  25360.13574649  .00006212  00000+0  12994-2 0  9994", "line2": "2 34031  74.0130 110.1202 0022838 230.0388 189.5871 14.59840190887612"}}, "geometry": {"type": "Point", "coordinates": [106.64972174028321, -10.253309225743099]}}, {"type": "Feature", "properties": {"norad_id": 34035, "name": "COSMOS 2251 DEB", "group": "cosmos-2251-debris", "lat": 45.28311365453886, "lon": 126.68480941727186, "alt_km": 746.1261211531018, "timestamp": "2025-12-26T09:30:54.033450+00:00", "meta": {"OBJECT_NAME": "COSMOS 2251 DEB", "OBJECT_ID": "1993-036HW", "EPOCH": "2025-12-26T02:53:03.374880", "MEAN_MOTION": 14.52117013, "ECCENTRICITY": 0.0045304, "INCLINATION": 74.0662, "RA_OF_ASC_NODE": 323.9736, "ARG_OF_PERICENTER": 323.0556, "MEAN_ANOMALY": 165.4295, "EPHEMERIS_TYPE": 0, "CLASSIFICATION_TYPE": "U", "NORAD_CAT_ID": 34035, "ELEMENT_SET_NO": 999, "REV_AT_EPOCH": 88160, "BSTAR": 0.0018302, "MEAN_MOTION_DOT": 7.491e-05, "MEAN_MOTION_DDOT": 0}, "tle": {"line1": "1 34035U 93036HW  25360.12017795  .00007491  00000+0  18302-2 0  9990", "line2": "2 34035  74.0662 323.9736 0045304 323.0556 165.4295 14.52117013881605"}}, "geometry": {"type": "Point", "coordinates": [126.68480941727186, 45.28311365453886]}}, {"type": "Feature", "properties": {"norad_id": 34036, "name": "COSMOS 2251 DEB", "group": "cosmos-2251-debris", "lat": 6.994233798095302, "lon": 123.69414083701467, "alt_km": 585.8049257636567, "timestamp": "2025-12-26T09:30:54.033479+00:00", "meta": {"OBJECT_NAME": "COSMOS 2251 DEB", "OBJECT_ID": "1993-036HX", "EPOCH": "2025-12-26T03:03:46.607328", "MEAN_MOTION": 14.96048397, "ECCENTRICITY": 0.0009478, "INCLINATION": 74.0197, "RA_OF_ASC_NODE": 122.2227, "ARG_OF_PERICENTER": 147.7434, "MEAN_ANOMALY": 212.4333, "EPHEMERIS_TYPE": 0, "CLASSIFICATION_TYPE": "U", "NORAD_CAT_ID": 34036, "ELEMENT_SET_NO": 999, "REV_AT_EPOCH": 88770, "BSTAR": 0.0038364, "MEAN_MOTION_DOT": 0.00043366, "MEAN_MOTION_DDOT": 0}, "tle": {"line1": "1 34036U 93036HX  25360.12762277  .00043366  00000+0  38364-2 0  9994", "line2": "2 34036  74.0197 122.2227 0009478 147.7434 212.4333 14.96048397887701"}}, "geometry": {"type": "Point", "coordinates": [123.69414083701467, 6.994233798095302]}}, {"type": "Feature", "properties": {"norad_id": 34037, "name": "COSMOS 2251 DEB", "group": "cosmos-2251-debris", "lat": -39.020226918952154, "lon": 12.047268839705376, "alt_km": 795.9128500050701, "timestamp": "2025-12-26T09:30:54.033490+00:00", "meta": {"OBJECT_NAME": "COSMOS 2251 DEB", "OBJECT_ID": "1993-036HY", "EPOCH": "2025-12-26T03:00:40.800672", "MEAN_MOTION": 14.34697586, "ECCENTRICITY": 0.005182, "INCLINATION": 74.0508, "RA_OF_ASC_NODE": 25.9427, "ARG_OF_PERICENTER": 71.7733, "MEAN_ANOMALY": 288.905, "EPHEMERIS_TYPE": 0, "CLASSIFICATION_TYPE": "U", "NORAD_CAT_ID": 34037, "ELEMENT_SET_NO": 999, "REV_AT_EPOCH": 87909, "BSTAR": 0.00041174, "MEAN_MOTION_DOT": 1.158e-05, "MEAN_MOTION_DDOT": 0}, "tle": {"line1": "1 34037U 93036HY  25360.12547223  .00001158  00000+0  41174-3 0  9994", "line2": "2 34037  74.0508  25.9427 0051820  71.7733 288.9050 14.34697586879094"}}, "geometry": {"type": "Point", "coordinates": [12.047268839705376, -39.020226918952154]}}, {"type": "Feature", "properties": {"norad_id": 34040, "name": "COSMOS 2251 DEB", "group": "cosmos-2251-debris", "lat": -11.678746268481952, "lon": -133.29336178285246, "alt_km": 1249.407176939164, "timestamp": "2025-12-26T09:30:54.033502+00:00", "meta": {"OBJECT_NAME": "COSMOS 2251 DEB", "OBJECT_ID": "1993-036JB", "EPOCH": "2025-12-26T03:18:28.708128", "MEAN_MOTION": 13.68398113, "ECCENTRICITY": 0.034348, "INCLINATION": 73.9554, "RA_OF_ASC_NODE": 43.7238, "ARG_OF_PERICENTER": 354.3857, "MEAN_ANOMALY": 5.3445, "EPHEMERIS_TYPE": 0, "CLASSIFICATION_TYPE": "U", "NORAD_CAT_ID": 34040, "ELEMENT_SET_NO": 999, "REV_AT_EPOCH": 83783, "BSTAR": 0.0007975, "MEAN_MOTION_DOT": 1.006e-05, "MEAN_MOTION_DDOT": 0}, "tle": {"line1": "1 34040U 93036JB  25360.13783227  .00001006  00000+0  79750-3 0  9998", "line2": "2 34040  73.9554  43.7238 0343480 354.3857   5.3445 13.68398113837833"}}, "geometry": {"type": "Point", "coordinates": [-133.29336178285246, -11.678746268481952]}}, {"type": "Feature", "properties": {"norad_id": 34045, "name": "COSMOS 2251 DEB", "group": "cosmos-2251-debris", "lat": -24.77168042931585, "lon": -81.74530143526891, "alt_km": 767.309947738614, "timestamp": "2025-12-26T09:30:54.033513+00:00", "meta": {"OBJECT_NAME": "COSMOS 2251 DEB", "OBJECT_ID": "1993-036JG", "EPOCH": "2025-12-26T04:56:08.255904", "MEAN_MOTION": 14.34076289, "ECCENTRICITY": 0.0026225, "INCLINATION": 74.0396, "RA_OF_ASC_NODE": 286.1925, "ARG_OF_PERICENTER": 6.0815, "MEAN_ANOMALY": 63.6633, "EPHEMERIS_TYPE": 0, "CLASSIFICATION_TYPE": "U", "NORAD_CAT_ID": 34045, "ELEMENT_SET_NO": 999, "REV_AT_EPOCH": 88226, "BSTAR": 0.00010119, "MEAN_MOTION_DOT": 2.58e-06, "MEAN_MOTION_DDOT": 0}, "tle": {"line1": "1 34045U 93036JG  25360.20565111  .00000258  00000+0  10119-3 0  9993", "line2": "2 34045  74.0396 286.1925 0026225   6.0815  63.6633 14.34076289882264"}}, "geometry": {"type": "Point", "coordinates": [-81.74530143526891, -24.77168042931585]}}, {"type": "Feature", "properties": {"norad_id": 34046, "name": "COSMOS 2251 DEB", "group": "cosmos-2251-debris", "lat": -33.944028838780355, "lon": 176.07748987474213, "alt_km": 788.988233135593, "timestamp": "2025-12-26T09:30:54.033524+00:00", "meta": {"OBJECT_NAME": "COSMOS 2251 DEB", "OBJECT_ID": "1993-036JH", "EPOCH": "2025-12-25T22:40:20.639712", "MEAN_MOTION": 14.46580903, "ECCENTRICITY": 0.0074571, "INCLINATION": 74.0399, "RA_OF_ASC_NODE": 345.8148, "ARG_OF_PERICENTER": 65.3438, "MEAN_ANOMALY": 317.8928, "EPHEMERIS_TYPE": 0, "CLASSIFICATION_TYPE": "U", "NORAD_CAT_ID": 34046, "ELEMENT_SET_NO": 999, "REV_AT_EPOCH": 88017, "BSTAR": 0.0013151, "MEAN_MOTION_DOT": 4.884e-05, "MEAN_MOTION_DDOT": 0}, "tle": {"line1": "1 34046U 93036JH  25359.94468333  .00004884  00000+0  13151-2 0  9998", "line2": "2 34046  74.0399 345.8148 0074571  65.3438 317.8928 14.46580903880179"}}, "geometry": {"type": "Point", "coordinates": [176.07748987474213, -33.944028838780355]}}, {"type": "Feature", "properties": {"norad_id": 34050, "name": "COSMOS 2251 DEB", "group": "cosmos-2251-debris", "lat": 36.93830829092878, "lon": 154.24085730479212, "alt_km": 910.8494005368102, "timestamp": "2025-12-26T09:30:54.033535+00:00", "meta": {"OBJECT_NAME": "COSMOS 2251 DEB", "OBJECT_ID": "1993-036JM", "EPOCH": "2025-12-25T11:04:48.351072", "MEAN_MOTION": 13.96210406, "ECCENTRICITY": 0.0214837, "INCLINATION": 74.0883, "RA_OF_ASC_NODE": 348.2285, "ARG_OF_PERICENTER": 49.3018, "MEAN_ANOMALY": 72.7253, "EPHEMERIS_TYPE": 0, "CLASSIFICATION_TYPE": "U", "NORAD_CAT_ID": 34050, "ELEMENT_SET_NO": 999, "REV_AT_EPOCH": 85609, "BSTAR": 0.0007946, "MEAN_MOTION_DOT": 1.304e-05, "MEAN_MOTION_DDOT": 0}, "tle": {"line1": "1 34050U 93036JM  25359.46167073  .00001304  00000+0  79460-3 0  9997", "line2": "2 34050  74.0883 348.2285 0214837  49.3018  72.7253 13.96210406856092"}}, "geometry": {"type": "Point", "coordinates": [154.24085730479212, 36.93830829092878]}}, {"type": "Feature", "properties": {"norad_id": 34053, "name": "COSMOS 2251 DEB", "group": "cosmos-2251-debris", "lat": -39.59679888399062, "lon": -153.71004802834105, "alt_km": 863.0682447177069, "timestamp": "2025-12-26T09:30:54.033545+00:00", "meta": {"OBJECT_NAME": "COSMOS 2251 DEB", "OBJECT_ID": "1993-036JQ", "EPOCH": "2025-12-26T00:48:30.650112", "MEAN_MOTION": 13.49180392, "ECCENTRICITY": 0.0422922, "INCLINATION": 73.8426, "RA_OF_ASC_NODE": 220.7488, "ARG_OF_PERICENTER": 7.1165, "MEAN_ANOMALY": 353.5688, "EPHEMERIS_TYPE": 0, "CLASSIFICATION_TYPE": "U", "NORAD_CAT_ID": 34053, "ELEMENT_SET_NO": 999, "REV_AT_EPOCH": 82863, "BSTAR": 0.00052813, "MEAN_MOTION_DOT": 5.55e-06, "MEAN_MOTION_DDOT": 0}, "tle": {"line1": "1 34053U 93036JQ  25360.03368808  .00000555  00000+0  52813-3 0  9994", "line2": "2 34053  73.8426 220.7488 0422922   7.1165 353.5688 13.49180392828634"}}, "geometry": {"type": "Point", "coordinates": [-153.71004802834105, -39.59679888399062]}}, {"type": "Feature", "properties": {"norad_id": 34056, "name": "COSMOS 2251 DEB", "group": "cosmos-2251-debris", "lat": 39.117568697225764, "lon": 65.39765831828555, "alt_km": 768.3032603556776, "timestamp": "2025-12-26T09:30:54.033555+00:00", "meta": {"OBJECT_NAME": "COSMOS 2251 DEB", "OBJECT_ID": "1993-036JT", "EPOCH": "2025-12-25T13:35:12.468192", "MEAN_MOTION": 14.20599559, "ECCENTRICITY": 0.0123692, "INCLINATION": 74.0581, "RA_OF_ASC_NODE": 53.4416, "ARG_OF_PERICENTER": 97.9047, "MEAN_ANOMALY": 19.5232, "EPHEMERIS_TYPE": 0, "CLASSIFICATION_TYPE": "U", "NORAD_CAT_ID": 34056, "ELEMENT_SET_NO": 999, "REV_AT_EPOCH": 86593, "BSTAR": 0.00073456, "MEAN_MOTION_DOT": 1.683e-05, "MEAN_MOTION_DDOT": 0}, "tle": {"line1": "1 34056U 93036JT  25359.56611653  .00001683  00000+0  73456-3 0  9991", "line2": "2 34056  74.0581  53.4416 0123692  97.9047  19.5232 14.20599559865939"}}, "geometry": {"type": "Point", "coordinates": [65.39765831828555, 39.117568697225764]}}]}